NORAD_CAT_ID,OBJECT_NAME,OBJECT_TYPE,EPOCH,MEAN_MOTION,ECCENTRICITY,INCLINATION,RA_OF_ASC_NODE,ARG_OF_PERICENTER,MEAN_ANOMALY,BSTAR,MEAN_MOTION_DOT,MEAN_MOTION_DDOT,TLE_LINE0,TLE_LINE1,TLE_LINE2,SEMIMAJOR_AXIS,PERIOD,APOGEE,PERIGEE,DECAYED
55429.0,STARLINK-5645,PAYLOAD,2023-03-24 22:21:38,15.69926173,0.0003694,69.9984,302.8159,268.2945,91.7828,9.4138e-06,9.19e-06,0.0,0 STARLINK-5645,1 55429U 23014AQ  23083.93170071  .00000919  00000-0  94138-5 0  9998,2 55429  69.9984 302.8159 0003694 268.2945  91.7828 15.69926173  9348,6737.245,91.724,361.599,356.621,0.0
55429.0,STARLINK-5645,PAYLOAD,2023-03-24 23:53:25,15.69865604,0.0002687,69.9988,302.6377,269.4689,90.6199,-0.0001737,-0.00020993,0.0,0 STARLINK-5645,1 55429U 23014AQ  23083.99543944 -.00020993  00000-0 -17370-3 0  9994,2 55429  69.9988 302.6377 0002687 269.4689  90.6199 15.69865604  8418,6737.419,91.728,361.094,357.473,0.0
55429.0,STARLINK-5645,PAYLOAD,2023-03-25 18:14:27,15.69938125,0.0002648,70.001,300.4897,245.0122,115.0799,0.0001389,0.0001653,0.0,0 STARLINK-5645,1 55429U 23014AQ  23084.76003491  .00016530  00000-0  13890-3 0  9991,2 55429  70.0010 300.4897 0002648 245.0122 115.0799 15.69938125  8539,6737.211,91.723,360.86,357.292,0.0
55429.0,STARLINK-5645,PAYLOAD,2023-03-26 01:53:11,15.69969294,0.0003805,69.9984,299.5929,262.2345,97.8419,0.00026424,0.00031742,0.0,0 STARLINK-5645,1 55429U 23014AQ  23085.07860526  .00031742  00000-0  26424-3 0  9995,2 55429  69.9984 299.5929 0003805 262.2345  97.8419 15.69969294  8586,6737.122,91.722,361.55,356.423,0.0
55429.0,STARLINK-5645,PAYLOAD,2023-03-26 20:14:13,15.69943798,0.0002878,69.9998,297.4416,279.2676,80.8194,8.3594e-05,9.858e-05,0.0,0 STARLINK-5645,1 55429U 23014AQ  23085.84320725  .00009858  00000-0  83594-4 0  9997,2 55429  69.9998 297.4416 0002878 279.2676  80.8194 15.69943798  8700,6737.195,91.723,360.999,357.121,0.0
55429.0,STARLINK-5645,PAYLOAD,2023-03-26 21:45:58,15.69942246,0.0003015,69.9995,297.2618,277.9026,82.1827,7.1855e-05,8.442e-05,0.0,0 STARLINK-5645,1 55429U 23014AQ  23085.90692326  .00008442  00000-0  71855-4 0  9998,2 55429  69.9995 297.2618 0003015 277.9026  82.1827 15.69942246  9657,6737.199,91.723,361.095,357.033,0.0
55429.0,STARLINK-5645,PAYLOAD,2023-03-27 14:35:14,15.6993535,0.0002779,69.9993,295.292,280.4925,79.5957,-2.5489e-05,-3.277e-05,0.0,0 STARLINK-5645,1 55429U 23014AQ  23086.60780543 -.00003277  00000-0 -25489-4 0  9990,2 55429  69.9993 295.2920 0002779 280.4925  79.5957 15.69935350  9766,6737.219,91.724,360.956,357.212,0.0
55429.0,STARLINK-5645,PAYLOAD,2023-03-27 20:42:14,15.69933849,0.0002832,69.9994,294.5768,261.7216,98.3658,-2.6138e-05,-3.355e-05,0.0,0 STARLINK-5645,1 55429U 23014AQ  23086.86267189 -.00003355  00000-0 -26138-4 0  9993,2 55429  69.9994 294.5768 0002832 261.7216  98.3658 15.69933849  8862,6737.223,91.724,360.996,357.18,0.0
55429.0,STARLINK-5645,PAYLOAD,2023-03-27 22:13:59,15.69935555,0.0003047,69.9993,294.3972,271.0956,88.9891,-2.3797e-05,-3.074e-05,0.0,0 STARLINK-5645,1 55429U 23014AQ  23086.92638728 -.00003074  00000-0 -23797-4 0  9997,2 55429  69.9993 294.3972 0003047 271.0956  88.9891 15.69935555  9816,6737.218,91.724,361.136,357.031,0.0
55429.0,STARLINK-5645,PAYLOAD,2023-03-28 13:31:30,15.69932327,0.0002967,69.9992,292.6054,275.402,84.6837,-1.9121e-07,-2.36e-06,0.0,0 STARLINK-5645,1 55429U 23014AQ  23087.56355303 -.00000236  00000-0 -19121-6 0  9998,2 55429  69.9992 292.6054 0002967 275.4020  84.6837 15.69932327  9915,6737.228,91.724,361.092,357.094,0.0
55429.0,STARLINK-5645,PAYLOAD,2023-03-28 21:10:16,15.6993248,0.000305,69.999,291.7081,277.2263,82.8586,2.2312e-05,2.472e-05,0.0,0 STARLINK-5645,1 55429U 23014AQ  23087.88213625  .00002472  00000-0  22312-4 0  9999,2 55429  69.9990 291.7081 0003050 277.2263  82.8586 15.69932480  9962,6737.227,91.724,361.147,357.037,0.0
55429.0,STARLINK-5645,PAYLOAD,2023-03-29 00:13:46,15.69931492,0.000346,69.9981,291.3501,281.0011,79.0796,8.775e-06,8.43e-06,0.0,0 STARLINK-5645,1 55429U 23014AQ  23088.00956850  .00000843  00000-0  87750-5 0  9996,2 55429  69.9981 291.3501 0003460 281.0011  79.0796 15.69931492  9046,6737.23,91.724,361.426,356.764,0.0
55429.0,STARLINK-5645,PAYLOAD,2023-03-29 20:06:33,15.69935402,0.0003288,69.9992,289.0225,268.6365,91.4454,3.476e-05,3.971e-05,0.0,0 STARLINK-5645,1 55429U 23014AQ  23088.83788577  .00003971  00000-0  34760-4 0  9993,2 55429  69.9992 289.0225 0003288 268.6365  91.4454 15.69935402 10110,6737.219,91.724,361.299,356.869,0.0
55429.0,STARLINK-5645,PAYLOAD,2023-03-30 00:41:49,15.69908334,0.0002607,69.9989,288.4835,269.3334,90.7563,-1.6319e-05,-2.172e-05,0.0,0 STARLINK-5645,1 55429U 23014AQ  23089.02905007 -.00002172  00000-0 -16319-4 0  9998,2 55429  69.9989 288.4835 0002607 269.3334  90.7563 15.69908334  9209,6737.296,91.725,360.918,357.405,0.0
55429.0,STARLINK-5645,PAYLOAD,2023-03-30 06:48:49,15.69922759,0.0003131,69.9984,287.768,275.9493,84.1346,5.9173e-06,4.99e-06,0.0,0 STARLINK-5645,1 55429U 23014AQ  23089.28390946  .00000499  00000-0  59173-5 0  9990,2 55429  69.9984 287.7680 0003131 275.9493  84.1346 15.69922759  9243,6737.255,91.724,361.229,357.011,0.0
55429.0,STARLINK-5645,PAYLOAD,2023-03-30 15:59:20,15.69933389,0.0003461,69.9988,286.6916,272.9154,87.1645,-8.3772e-06,-1.22e-05,0.0,0 STARLINK-5645,1 55429U 23014AQ  23089.66620384 -.00001220  00000-0 -83772-5 0  9991,2 55429  69.9988 286.6916 0003461 272.9154  87.1645 15.69933389  9307,6737.225,91.724,361.421,356.758,0.0
55429.0,STARLINK-5645,PAYLOAD,2023-03-31 19:30:52,15.69926605,0.0003246,70.0,283.469,259.9647,100.1183,2.2708e-05,2.519e-05,0.0,0 STARLINK-5645,1 55429U 23014AQ  23090.81310809  .00002519  00000-0  22708-4 0  9999,2 55429  70.0000 283.4690 0003246 259.9647 100.1183 15.69926605  9487,6737.244,91.724,361.296,356.922,0.0
55429.0,STARLINK-5645,PAYLOAD,2023-04-01 00:06:08,15.69913674,0.0003257,69.9987,282.9294,267.5204,92.5619,-6.6366e-06,-1.01e-05,0.0,0 STARLINK-5645,1 55429U 23014AQ  23091.00426531 -.00001010  00000-0 -66366-5 0  9997,2 55429  69.9987 282.9294 0003257 267.5204  92.5619 15.69913674  9512,6737.281,91.725,361.34,356.952,0.0
55429.0,STARLINK-5645,PAYLOAD,2023-04-01 06:13:08,15.69920702,0.0003563,69.9978,282.2123,271.6875,88.3913,9.315e-06,9.07e-06,0.0,0 STARLINK-5645,1 55429U 23014AQ  23091.25912978  .00000907  00000-0  93150-5 0  9992,2 55429  69.9978 282.2123 0003563 271.6875  88.3913 15.69920702 10495,6737.261,91.724,361.526,356.725,0.0
55429.0,STARLINK-5645,PAYLOAD,2023-04-01 15:23:39,15.69926253,0.0003808,69.9988,281.1384,274.1472,85.9289,2.9041e-05,3.281e-05,0.0,0 STARLINK-5645,1 55429U 23014AQ  23091.64142702  .00003281  00000-0  29041-4 0  9990,2 55429  69.9988 281.1384 0003808 274.1472  85.9289 15.69926253  9614,6737.245,91.724,361.676,356.544,0.0
55429.0,STARLINK-5645,PAYLOAD,2023-04-01 19:58:54,15.6993056,0.0003699,69.9993,280.6016,271.6595,88.4177,4.8277e-05,5.598e-05,0.0,0 STARLINK-5645,1 55429U 23014AQ  23091.83257604  .00005598  00000-0  48277-4 0  9994,2 55429  69.9993 280.6016 0003699 271.6595  88.4177 15.69930560 10580,6737.233,91.724,361.59,356.606,0.0
55429.0,STARLINK-5645,PAYLOAD,2023-04-02 14:19:56,15.69930328,0.0003912,69.9997,278.4518,272.2329,87.8418,4.2163e-05,4.861e-05,0.0,0 STARLINK-5645,1 55429U 23014AQ  23092.59717757  .00004861  00000-0  42163-4 0  9998,2 55429  69.9997 278.4518 0003912 272.2329  87.8418 15.69930328 10703,6737.233,91.724,361.734,356.463,0.0
55429.0,STARLINK-5645,PAYLOAD,2023-04-02 20:26:56,15.69930177,0.0003482,70.0003,277.7358,263.2714,96.8085,3.1882e-05,3.623e-05,0.0,0 STARLINK-5645,1 55429U 23014AQ  23092.85204355  .00003623  00000-0  31882-4 0  9993,2 55429  70.0003 277.7358 0003482 263.2714  96.8085 15.69930177  9809,6737.234,91.724,361.445,356.753,0.0
55429.0,STARLINK-5645,PAYLOAD,2023-04-02 21:58:41,15.69928751,0.000367,69.9996,277.5555,269.8021,90.2754,2.7425e-05,3.087e-05,0.0,0 STARLINK-5645,1 55429U 23014AQ  23092.91576093  .00003087  00000-0  27425-4 0  9993,2 55429  69.9996 277.5555 0003670 269.8021  90.2754 15.69928751 10758,6737.238,91.724,361.575,356.63,0.0
55429.0,STARLINK-5645,PAYLOAD,2023-04-03 11:44:28,15.69924373,0.0003291,69.9999,275.9434,270.4805,89.6014,1.3065e-05,1.359e-05,0.0,0 STARLINK-5645,1 55429U 23014AQ  23093.48921583  .00001359  00000-0  13065-4 0  9999,2 55429  69.9999 275.9434 0003291 270.4805  89.6014 15.69924373  9908,6737.25,91.724,361.333,356.898,0.0
55429.0,STARLINK-5645,PAYLOAD,2023-04-03 20:54:57,15.69962116,0.0004121,69.9998,274.8686,266.1426,93.9298,9.995e-05,0.00011843,0.0,0 STARLINK-5645,1 55429U 23014AQ  23093.87149684  .00011843  00000-0  99950-4 0  9992,2 55429  69.9998 274.8686 0004121 266.1426  93.9298 15.69962116  9963,6737.142,91.722,361.784,356.231,0.0
55429.0,STARLINK-5645,PAYLOAD,2023-04-04 21:23:00,15.69915462,0.0003902,69.9991,271.9994,282.6747,77.4012,-8.1093e-06,-1.188e-05,0.0,0 STARLINK-5645,1 55429U 23014AQ  23094.89098324 -.00001188  00000-0 -81093-5 0  9992,2 55429  69.9991 271.9994 0003902 282.6747  77.4012 15.69915462 11068,6737.276,91.725,361.77,356.512,0.0
55429.0,STARLINK-5645,PAYLOAD,2023-04-05 03:30:01,15.69918758,0.0003471,69.9999,271.2842,288.9974,71.0846,7.7511e-06,7.19e-06,0.0,0 STARLINK-5645,1 55429U 23014AQ  23095.14585290  .00000719  00000-0  77511-5 0  9991,2 55429  69.9999 271.2842 0003471 288.9974  71.0846 15.69918758 10169,6737.266,91.724,361.47,356.793,0.0
55429.0,STARLINK-5645,PAYLOAD,2023-04-05 14:12:16,15.69935707,0.0004396,69.9995,270.033,268.1453,91.924,1.8391e-06,8e-08,0.0,0 STARLINK-5645,1 55429U 23014AQ  23095.59185868  .00000008  00000-0  18391-5 0  9999,2 55429  69.9995 270.0330 0004396 268.1453  91.9240 15.69935707 11177,6737.218,91.724,362.045,356.121,0.0
55429.0,STARLINK-5645,PAYLOAD,2023-04-05 20:19:17,15.69934581,0.000379,69.9974,269.3144,270.5945,89.4817,9.9129e-05,0.00011729,0.0,0 STARLINK-5645,1 55429U 23014AQ  23095.84673040  .00011729  00000-0  99129-4 0  9990,2 55429  69.9974 269.3144 0003790 270.5945  89.4817 15.69934581 11214,6737.221,91.724,361.64,356.533,0.0
